{"type": "FeatureCollection", "features": [ {"type": "Feature", "properties": {"norad_id": 41549, "name": "GSAT0211 (GALILEO 14)", "group": "gnss", "lat": -18.40913721342073, "lon": 60.3754325435353, "alt_km": 23236.422786829415, "timestamp": "2025-12-07T07:31:36.542038+00:00", "meta": {"OBJECT_NAME": "GSAT0211 (GALILEO 14)", "OBJECT_ID": "2016-030A", "EPOCH": "2025-12-05T19:26:55.320000", "MEAN_MOTION": 1.70472946, "ECCENTRICITY": 0.00039556, "INCLINATION": 55.1547, "RA_OF_ASC_NODE": 227.0144, "ARG_OF_PERICENTER": 12.8849, "MEAN_ANOMALY": 347.2228, "EPHEMERIS_TYPE": 0, "CLASSIFICATION_TYPE": "U", "NORAD_CAT_ID": 41549, "ELEMENT_SET_NO": 999, "REV_AT_EPOCH": 5937, "BSTAR": 0, "MEAN_MOTION_DOT": 3.5e-07, "MEAN_MOTION_DDOT": 0}, "tle": {"line1": "1 41549U 16030A   25339.81036250  .00000035  00000+0  00000+0 0  9996", "line2": "2 41549  55.1547 227.0144 0003955  12.8849 347.2228  1.70472946 59378"}}, "geometry": {"type": "Point", "coordinates": [60.3754325435353, -18.40913721342073]}}, {"type": "Feature", "properties": {"norad_id": 41550, "name": "GSAT0210 (GALILEO 13)", "group": "gnss", "lat": 35.19273814766759, "lon": -103.62567632095951, "alt_km": 23221.908135470156, "timestamp": "2025-12-07T07:31:36.542050+00:00", "meta": {"OBJECT_NAME": "GSAT0210 (GALILEO 13)", "OBJECT_ID": "2016-030B", "EPOCH": "2025-12-04T07:23:32.472672", "MEAN_MOTION": 1.70473512, "ECCENTRICITY": 0.0001419, "INCLINATION": 55.1546, "RA_OF_ASC_NODE": 227.0538, "ARG_OF_PERICENTER": 244.2228, "MEAN_ANOMALY": 115.8568, "EPHEMERIS_TYPE": 0, "CLASSIFICATION_TYPE": "U", "NORAD_CAT_ID": 41550, "ELEMENT_SET_NO": 999, "REV_AT_EPOCH": 5934, "BSTAR": 0, "MEAN_MOTION_DOT": 4e-07, "MEAN_MOTION_DDOT": 0}, "tle": {"line1": "1 41550U 16030B   25338.30801473  .00000040  00000+0  00000+0 0  9994", "line2": "2 41550  55.1546 227.0538 0001419 244.2228 115.8568  1.70473512 59344"}}, "geometry": {"type": "Point", "coordinates": [-103.62567632095951, 35.19273814766759]}}, {"type": "Feature", "properties": {"norad_id": 41586, "name": "BEIDOU-2 G7 (C03)", "group": "gnss", "lat": -1.3887062047298595, "lon": -60.33573712862634, "alt_km": 35798.64047688112, "timestamp": "2025-12-07T07:31:36.542062+00:00", "meta": {"OBJECT_NAME": "BEIDOU-2 G7 (C03)", "OBJECT_ID": "2016-037A", "EPOCH": "2025-12-06T21:02:21.814368", "MEAN_MOTION": 1.00269933, "ECCENTRICITY": 0.00043846, "INCLINATION": 1.7421, "RA_OF_ASC_NODE": 67.7397, "ARG_OF_PERICENTER": 1.2617, "MEAN_ANOMALY": 72.9813, "EPHEMERIS_TYPE": 0, "CLASSIFICATION_TYPE": "U", "NORAD_CAT_ID": 41586, "ELEMENT_SET_NO": 999, "REV_AT_EPOCH": 496, "BSTAR": 0, "MEAN_MOTION_DOT": -3.48e-06, "MEAN_MOTION_DDOT": 0}, "tle": {"line1": "1 41586U 16037A   25340.87664137 -.00000348  00000+0  00000+0 0  9991", "line2": "2 41586   1.7421  67.7397 0004384   1.2617  72.9813  1.00269933  4968"}}, "geometry": {"type": "Point", "coordinates": [-60.33573712862634, -1.3887062047298595]}}, {"type": "Feature", "properties": {"norad_id": 41589, "name": "EUTELSAT 117 WEST B (WAAS/PRN 131)", "group": "gnss", "lat": -0.021047286594476973, "lon": 72.22737341555623, "alt_km": 35785.21381728455, "timestamp": "2025-12-07T07:31:36.542074+00:00", "meta": {"OBJECT_NAME": "EUTELSAT 117 WEST B (WAAS/PRN 131)", "OBJECT_ID": "2016-038B", "EPOCH": "2025-12-06T21:40:10.692192", "MEAN_MOTION": 1.00270331, "ECCENTRICITY": 3.265e-05, "INCLINATION": 0.0031, "RA_OF_ASC_NODE": 151.3516, "ARG_OF_PERICENTER": 304.7129, "MEAN_ANOMALY": 187.9125, "EPHEMERIS_TYPE": 0, "CLASSIFICATION_TYPE": "U", "NORAD_CAT_ID": 41589, "ELEMENT_SET_NO": 999, "REV_AT_EPOCH": 3473, "BSTAR": 0, "MEAN_MOTION_DOT": -6e-08, "MEAN_MOTION_DDOT": 0}, "tle": {"line1": "1 41589U 16038B   25340.90290153 -.00000006  00000+0  00000+0 0  9993", "line2": "2 41589   0.0031 151.3516 0000326 304.7129 187.9125  1.00270331 34739"}}, "geometry": {"type": "Point", "coordinates": [72.22737341555623, -0.021047286594476973]}}, {"type": "Feature", "properties": {"norad_id": 41859, "name": "GSAT0207 (GALILEO 15)", "group": "gnss", "lat": -41.63422958483192, "lon": -35.76924537693491, "alt_km": 23227.150701711107, "timestamp": "2025-12-07T07:31:36.542087+00:00", "meta": {"OBJECT_NAME": "GSAT0207 (GALILEO 15)", "OBJECT_ID": "2016-069A", "EPOCH": "2025-12-05T18:13:35.857920", "MEAN_MOTION": 1.70474238, "ECCENTRICITY": 0.00021634, "INCLINATION": 55.3781, "RA_OF_ASC_NODE": 106.4436, "ARG_OF_PERICENTER": 324.5217, "MEAN_ANOMALY": 35.4153, "EPHEMERIS_TYPE": 0, "CLASSIFICATION_TYPE": "U", "NORAD_CAT_ID": 41859, "ELEMENT_SET_NO": 999, "REV_AT_EPOCH": 5610, "BSTAR": 0, "MEAN_MOTION_DOT": 7e-08, "MEAN_MOTION_DDOT": 0}, "tle": {"line1": "1 41859U 16069A   25339.75944280  .00000007  00000+0  00000+0 0  9995", "line2": "2 41859  55.3781 106.4436 0002163 324.5217  35.4153  1.70474238 56107"}}, "geometry": {"type": "Point", "coordinates": [-35.76924537693491, -41.63422958483192]}}, {"type": "Feature", "properties": {"norad_id": 41860, "name": "GSAT0212 (GALILEO 16)", "group": "gnss", "lat": -29.21082655502742, "lon": 83.68067079202645, "alt_km": 23223.476744240645, "timestamp": "2025-12-07T07:31:36.542112+00:00", "meta": {"OBJECT_NAME": "GSAT0212 (GALILEO 16)", "OBJECT_ID": "2016-069B", "EPOCH": "2025-12-06T04:47:33.838080", "MEAN_MOTION": 1.70474471, "ECCENTRICITY": 0.00022225, "INCLINATION": 55.376, "RA_OF_ASC_NODE": 106.4267, "ARG_OF_PERICENTER": 32.4045, "MEAN_ANOMALY": 327.5613, "EPHEMERIS_TYPE": 0, "CLASSIFICATION_TYPE": "U", "NORAD_CAT_ID": 41860, "ELEMENT_SET_NO": 999, "REV_AT_EPOCH": 5636, "BSTAR": 0, "MEAN_MOTION_DOT": 6e-08, "MEAN_MOTION_DDOT": 0}, "tle": {"line1": "1 41860U 16069B   25340.19969720  .00000006  00000+0  00000+0 0  9992", "line2": "2 41860  55.3760 106.4267 0002222  32.4045 327.5613  1.70474471 56361"}}, "geometry": {"type": "Point", "coordinates": [83.68067079202645, -29.21082655502742]}}, {"type": "Feature", "properties": {"norad_id": 41861, "name": "GSAT0213 (GALILEO 17)", "group": "gnss", "lat": 54.57655710891774, "lon": -149.6203840737822, "alt_km": 23222.07451861609, "timestamp": "2025-12-07T07:31:36.542132+00:00", "meta": {"OBJECT_NAME": "GSAT0213 (GALILEO 17)", "OBJECT_ID": "2016-069C", "EPOCH": "2025-12-04T19:22:49.962144", "MEAN_MOTION": 1.70474712, "ECCENTRICITY": 0.00021375, "INCLINATION": 55.3775, "RA_OF_ASC_NODE": 106.4729, "ARG_OF_PERICENTER": 283.7545, "MEAN_ANOMALY": 76.173, "EPHEMERIS_TYPE": 0, "CLASSIFICATION_TYPE": "U", "NORAD_CAT_ID": 41861, "ELEMENT_SET_NO": 999, "REV_AT_EPOCH": 5620, "BSTAR": 0, "MEAN_MOTION_DOT": 1e-07, "MEAN_MOTION_DDOT": 0}, "tle": {"line1": "1 41861U 16069C   25338.80752271  .00000010  00000+0  00000+0 0  9994", "line2": "2 41861  55.3775 106.4729 0002137 283.7545  76.1730  1.70474712 56200"}}, "geometry": {"type": "Point", "coordinates": [-149.6203840737822, 54.57655710891774]}}, {"type": "Feature", "properties": {"norad_id": 41862, "name": "GSAT0214 (GALILEO 18)", "group": "gnss", "lat": 6.945280647256546, "lon": 111.20603999105063, "alt_km": 23220.70704955175, "timestamp": "2025-12-07T07:31:36.542144+00:00", "meta": {"OBJECT_NAME": "GSAT0214 (GALILEO 18)", "OBJECT_ID": "2016-069D", "EPOCH": "2025-12-05T12:57:44.455104", "MEAN_MOTION": 1.70474584, "ECCENTRICITY": 0.00011763, "INCLINATION": 55.3762, "RA_OF_ASC_NODE": 106.4455, "ARG_OF_PERICENTER": 291.0864, "MEAN_ANOMALY": 68.8522, "EPHEMERIS_TYPE": 0, "CLASSIFICATION_TYPE": "U", "NORAD_CAT_ID": 41862, "ELEMENT_SET_NO": 999, "REV_AT_EPOCH": 5634, "BSTAR": 0, "MEAN_MOTION_DOT": 8e-08, "MEAN_MOTION_DDOT": 0}, "tle": {"line1": "1 41862U 16069D   25339.54009786  .00000008  00000+0  00000+0 0  9990", "line2": "2 41862  55.3762 106.4455 0001176 291.0864  68.8522  1.70474584 56340"}}, "geometry": {"type": "Point", "coordinates": [111.20603999105063, 6.945280647256546]}}, {"type": "Feature", "properties": {"norad_id": 42709, "name": "SES-15 (WAAS/PRN 133)", "group": "gnss", "lat": 0.04258311823079361, "lon": 60.05203733164737, "alt_km": 35788.85716839813, "timestamp": "2025-12-07T07:31:36.542156+00:00", "meta": {"OBJECT_NAME": "SES-15 (WAAS/PRN 133)", "OBJECT_ID": "2017-026A", "EPOCH": "2025-12-06T10:37:52.502592", "MEAN_MOTION": 1.00267579, "ECCENTRICITY": 5.173e-05, "INCLINATION": 0.0196, "RA_OF_ASC_NODE": 346.8785, "ARG_OF_PERICENTER": 293.5379, "MEAN_ANOMALY": 185.3614, "EPHEMERIS_TYPE": 0, "CLASSIFICATION_TYPE": "U", "NORAD_CAT_ID": 42709, "ELEMENT_SET_NO": 999, "REV_AT_EPOCH": 550, "BSTAR": 0, "MEAN_MOTION_DOT": 6.7e-07, "MEAN_MOTION_DDOT": 0}, "tle": {"line1": "1 42709U 17026A   25340.44296878  .00000067  00000+0  00000+0 0  9991", "line2": "2 42709   0.0196 346.8785 0000517 293.5379 185.3614  1.00267579  5507"}}, "geometry": {"type": "Point", "coordinates": [60.05203733164737, 0.04258311823079361]}}, {"type": "Feature", "properties": {"norad_id": 42738, "name": "QZS-2 (QZSS/PRN 194)", "group": "gnss", "lat": 39.605168986482305, "lon": -29.944217834618694, "alt_km": 38955.37945632476, "timestamp": "2025-12-07T07:31:36.542172+00:00", "meta": {"OBJECT_NAME": "QZS-2 (QZSS/PRN 194)", "OBJECT_ID": "2017-028A", "EPOCH": "2025-12-06T14:18:00.930240", "MEAN_MOTION": 1.00284682, "ECCENTRICITY": 0.07585895, "INCLINATION": 39.7243, "RA_OF_ASC_NODE": 245.9734, "ARG_OF_PERICENTER": 269.4135, "MEAN_ANOMALY": 276.3271, "EPHEMERIS_TYPE": 0, "CLASSIFICATION_TYPE": "U", "NORAD_CAT_ID": 42738, "ELEMENT_SET_NO": 999, "REV_AT_EPOCH": 569, "BSTAR": 0, "MEAN_MOTION_DOT": -1.66e-06, "MEAN_MOTION_DDOT": 0}, "tle": {"line1": "1 42738U 17028A   25340.59584410 -.00000166  00000+0  00000+0 0  9994", "line2": "2 42738  39.7243 245.9734 0758589 269.4135 276.3271  1.00284682  5699"}}, "geometry": {"type": "Point", "coordinates": [-29.944217834618694, 39.605168986482305]}}]}